{"type":"FeatureCollection","source":"OpenStreetMap relation 16878152 and way 157686292","scope":{"city":"Sofia"},"retrieved":"2026-09-21","license":"ODbL-1.0","attribution":"© OpenStreetMap contributors","features":[{"type":"Feature","id":"relation/16878152","properties":{"id":"osm-relation-16878152","name":"South Park","areaType":"park"},"geometry":{"type":"Polygon","coordinates":[[[23.3027137,42.6640647],[23.3027501,42.6637742],[23.302771,42.6636709],[23.3028187,42.6635594],[23.3028538,42.6634868],[23.3029076,42.6633757],[23.3029773,42.6632721],[23.3029937,42.6632507],[23.3031232,42.6630813],[23.3032591,42.6629059],[23.3035765,42.6625148],[23.3035839,42.6625057],[23.3036387,42.6624387],[23.3041414,42.6618262],[23.3044683,42.6614188],[23.3047162,42.6610998],[23.304965,42.6607795],[23.3052657,42.6603775],[23.3054432,42.6601471],[23.3056964,42.6598182],[23.3058263,42.6596478],[23.3059674,42.659463],[23.3061129,42.6592722],[23.3061476,42.6592267],[23.3061561,42.6592155],[23.3062222,42.659129],[23.3063185,42.6590028],[23.3063456,42.6589673],[23.3064486,42.6588543],[23.3065675,42.6587418],[23.3066866,42.6586292],[23.3068767,42.6584494],[23.3069797,42.6583636],[23.3070864,42.6582788],[23.3072967,42.6581366],[23.3076031,42.657968],[23.3080619,42.6577394],[23.3083099,42.6576289],[23.3085382,42.6575492],[23.3087561,42.6574794],[23.3089787,42.6574188],[23.3092305,42.657367],[23.3093766,42.657337],[23.309457,42.6573205],[23.3097526,42.6572739],[23.3099549,42.657248],[23.3100652,42.6572374],[23.3104832,42.6572168],[23.3106348,42.6572132],[23.3108001,42.657219],[23.310974,42.6572355],[23.3112876,42.6572863],[23.3117499,42.6573656],[23.3122191,42.657446],[23.3126063,42.6575372],[23.3128414,42.6576118],[23.3129446,42.6578537],[23.3129605,42.6578952],[23.3130802,42.6582225],[23.3131114,42.6583094],[23.3131658,42.6584605],[23.313201,42.6585824],[23.3132429,42.6587271],[23.3132826,42.6588956],[23.3133035,42.6590633],[23.3133266,42.6595431],[23.3133756,42.6602886],[23.313388,42.6605283],[23.3133913,42.6605651],[23.3134202,42.6608261],[23.3134761,42.6612402],[23.3135225,42.6616696],[23.3135486,42.6619114],[23.3135994,42.662646],[23.3136263,42.6630144],[23.3136518,42.6632637],[23.313678,42.6635205],[23.3136896,42.6637663],[23.3136973,42.6638873],[23.3136997,42.6639522],[23.3137012,42.663994],[23.3137206,42.6654813],[23.3137328,42.665618],[23.3138391,42.666209],[23.3138488,42.6662661],[23.3138644,42.6663585],[23.3120379,42.6659792],[23.3109397,42.6660078],[23.3114897,42.6673022],[23.3114765,42.6676717],[23.3115233,42.6681025],[23.3115528,42.668549],[23.3117385,42.6688866],[23.3107987,42.6693958],[23.3117633,42.670881],[23.3113593,42.6713114],[23.3098918,42.6707719],[23.3093394,42.6710689],[23.3100484,42.6715781],[23.3091003,42.6719297],[23.3094856,42.6724549],[23.3099451,42.6726981],[23.3102952,42.6728834],[23.3103717,42.6729239],[23.3107884,42.6731444],[23.3109165,42.6732122],[23.3110586,42.6732874],[23.3116269,42.6735882],[23.3117204,42.6736374],[23.3119495,42.673758],[23.3120606,42.6738165],[23.3121731,42.6738758],[23.3122462,42.6739143],[23.3120728,42.6740832],[23.3120479,42.6741082],[23.312016,42.6742185],[23.3121757,42.6742287],[23.3122329,42.6742331],[23.3123124,42.6742393],[23.3126047,42.6742748],[23.3128676,42.6743379],[23.3130902,42.6744246],[23.3133034,42.6745331],[23.3133785,42.6745716],[23.3136708,42.6747258],[23.3137541,42.6747697],[23.3140083,42.6749048],[23.3142254,42.6750148],[23.3144514,42.6751349],[23.3145588,42.675192],[23.3147276,42.6752812],[23.314758,42.6752971],[23.3150444,42.6754479],[23.3150702,42.6754615],[23.3158553,42.675863],[23.3166392,42.676272],[23.3168052,42.676359],[23.3179805,42.6769749],[23.3186387,42.6773163],[23.3193198,42.6776759],[23.3194257,42.6777308],[23.3197324,42.6778879],[23.3200714,42.6780174],[23.3202125,42.6780632],[23.3203919,42.6781214],[23.320762,42.6782425],[23.3213847,42.6784297],[23.3214311,42.6784433],[23.3215738,42.678466],[23.321778,42.6784701],[23.3218186,42.678652],[23.3217946,42.6788455],[23.3211602,42.6819371],[23.3211161,42.6821395],[23.3210422,42.6823661],[23.3209721,42.68259],[23.320926,42.6827433],[23.3208697,42.6829211],[23.3208478,42.6830255],[23.3208222,42.683165],[23.3208187,42.6831841],[23.3208067,42.6833383],[23.3208018,42.6834189],[23.3208021,42.6834595],[23.3208029,42.6835544],[23.3208197,42.6836758],[23.3208509,42.6838376],[23.320938,42.6842625],[23.3210153,42.6846399],[23.3211462,42.6852831],[23.3211681,42.6854167],[23.3212327,42.6857788],[23.3212468,42.6858476],[23.3212495,42.6859052],[23.3213149,42.6862775],[23.3213722,42.6866257],[23.3213343,42.686697],[23.321359,42.6868161],[23.321552,42.687748],[23.321729,42.6886026],[23.321737,42.6886417],[23.3217579,42.6887418],[23.3216648,42.6887503],[23.3215889,42.6887571],[23.3203854,42.6888633],[23.3196789,42.688924],[23.319203,42.6889676],[23.3191561,42.6889717],[23.3190077,42.6889848],[23.3189689,42.6888662],[23.3189622,42.6888469],[23.318852,42.688529],[23.3186972,42.6880757],[23.318468,42.6874328],[23.3184498,42.6873812],[23.3181196,42.6864962],[23.3180955,42.686436],[23.3181013,42.6862818],[23.3180899,42.6862229],[23.3180747,42.6861685],[23.3180297,42.6860584],[23.3180192,42.6860328],[23.3179817,42.6859738],[23.3179367,42.6859095],[23.3180101,42.685877],[23.3179463,42.6858198],[23.3178607,42.6857587],[23.317223,42.6853755],[23.3169778,42.6852293],[23.3169194,42.6852029],[23.3168477,42.6851709],[23.3168206,42.6851587],[23.3175225,42.6849456],[23.3175106,42.6849152],[23.3173199,42.6844188],[23.317206,42.6841017],[23.3170396,42.6837938],[23.3171601,42.6837773],[23.3171273,42.6836906],[23.3170716,42.6836647],[23.3170407,42.6835674],[23.3170399,42.6834308],[23.3170113,42.6832416],[23.3170441,42.6831455],[23.317015,42.6828165],[23.3166963,42.682772],[23.3166354,42.6827248],[23.3165057,42.6825963],[23.316085,42.6823186],[23.3157294,42.6817913],[23.3154318,42.6814308],[23.3154318,42.6813667],[23.315408,42.6813382],[23.3151385,42.6810158],[23.3143454,42.6800396],[23.3142593,42.6799371],[23.3142044,42.6798704],[23.3140597,42.6796944],[23.313026,42.6784529],[23.3128042,42.6781733],[23.3125349,42.6778382],[23.3122607,42.6774969],[23.3120943,42.6772897],[23.311805,42.6769077],[23.3117494,42.6768398],[23.3115626,42.6766115],[23.3114693,42.6764975],[23.3111025,42.6760492],[23.3106528,42.675501],[23.3106071,42.6754454],[23.3099045,42.6745983],[23.3098479,42.6745301],[23.3096723,42.6745758],[23.3094738,42.6746275],[23.3093687,42.6746549],[23.309161,42.674709],[23.3091043,42.6747244],[23.3090066,42.6747492],[23.3088079,42.674801],[23.3087376,42.6748193],[23.308701,42.6748288],[23.3086831,42.6748335],[23.3086006,42.6748513],[23.3084057,42.674892],[23.3083325,42.674903],[23.3082676,42.6749127],[23.3080479,42.674941],[23.3078169,42.6749582],[23.3074898,42.6749571],[23.3072416,42.6749433],[23.307011,42.6749117],[23.3067712,42.6748568],[23.3066314,42.674763],[23.3065633,42.6747403],[23.3065494,42.6747325],[23.3061628,42.674532],[23.3057071,42.674296],[23.305424,42.6741234],[23.3051168,42.6739026],[23.3047785,42.6736844],[23.304679,42.6736167],[23.3045921,42.6735575],[23.3045622,42.6735303],[23.3044609,42.6734382],[23.3042779,42.6732419],[23.3042886,42.6732038],[23.3043836,42.6728655],[23.304378,42.6726201],[23.3043625,42.6725443],[23.304318,42.6723256],[23.3042987,42.6722312],[23.3042675,42.6720822],[23.3042043,42.6717685],[23.3041748,42.6716241],[23.3040154,42.6708424],[23.3038635,42.6700976],[23.3038213,42.6698909],[23.303813,42.66985],[23.3037932,42.6697531],[23.3037816,42.6696957],[23.3037696,42.6696362],[23.3036937,42.66926],[23.3033822,42.6677176],[23.3033237,42.6674281],[23.3033154,42.6673871],[23.3033066,42.6673438],[23.303075,42.6661964],[23.3030673,42.6661581],[23.3029882,42.665766],[23.3029389,42.6655463],[23.3028981,42.6653701],[23.3028608,42.6652078],[23.3028349,42.665074],[23.3027542,42.6646301],[23.3027166,42.6643499],[23.3027137,42.6640647]]]}},{"type":"Feature","id":"way/157686292","properties":{"id":"osm-way-157686292","name":"Sofia Zoo","areaType":"zoo"},"geometry":{"type":"Polygon","coordinates":[[[23.3275681,42.6596381],[23.3277557,42.6594834],[23.3280449,42.6592451],[23.3279471,42.6591771],[23.3279736,42.6591565],[23.3279381,42.6591357],[23.3279076,42.6591158],[23.3278746,42.659095],[23.3284819,42.6585599],[23.3285065,42.6585228],[23.3285231,42.6584837],[23.3285369,42.6584327],[23.3285375,42.6584002],[23.3285352,42.6583341],[23.3285354,42.6580583],[23.3285198,42.6580581],[23.3285089,42.6579932],[23.3285025,42.6579547],[23.328432,42.6578844],[23.3284044,42.6578568],[23.3284036,42.6578461],[23.3284739,42.6578432],[23.3293263,42.6573273],[23.3294276,42.6572709],[23.3295183,42.6572203],[23.3298963,42.6569424],[23.3299488,42.6569049],[23.3299633,42.6566713],[23.3303156,42.6565666],[23.3304863,42.6564349],[23.3305459,42.6564717],[23.3308426,42.6562352],[23.3309016,42.6562669],[23.3311175,42.6560767],[23.3317468,42.656055],[23.3319552,42.6558507],[23.3321887,42.655838],[23.3325282,42.6558499],[23.3327862,42.6558823],[23.3330883,42.6559446],[23.3334407,42.6560681],[23.3337525,42.6562769],[23.3337602,42.6565157],[23.333878,42.6568265],[23.3343023,42.657702],[23.3344668,42.6580781],[23.334711,42.659152],[23.3345874,42.6591545],[23.3345596,42.6591557],[23.3344538,42.6592215],[23.3344786,42.6596031],[23.3344715,42.6596306],[23.3344571,42.6596525],[23.3344309,42.6596754],[23.3344021,42.6596908],[23.3343753,42.6597012],[23.3343278,42.6597123],[23.3342548,42.6597172],[23.33404,42.6597191],[23.3340407,42.6597398],[23.3340426,42.6597941],[23.3340437,42.6598286],[23.3340449,42.6598628],[23.3340605,42.6598625],[23.3340618,42.6599008],[23.3340787,42.6599005],[23.33408,42.659939],[23.334096,42.6599389],[23.3340968,42.6599638],[23.3340983,42.6600147],[23.3340241,42.660016],[23.3340235,42.6600344],[23.3340239,42.6600534],[23.3340272,42.6602537],[23.3339609,42.6604472],[23.333906,42.6606074],[23.3336504,42.6606206],[23.3303633,42.6607909],[23.3301362,42.6608027],[23.3292001,42.6606568],[23.3284518,42.6608146],[23.3280685,42.6607638],[23.3275681,42.6596381]]]}}]}
